$$SOE
2459580.500000000, A.D. 2022-Jan-01 00:00:00.0000, 1.017941268822440E+08, 4.259456781234524E+08, -2.411586607121813E+07,
2459587.500000000, A.D. 2022-Jan-08 00:00:00.0000, 9.187781590213336E+07, 4.301520855519673E+08, -2.402789523223025E+07,
2459594.500000000, A.D. 2022-Jan-15 00:00:00.0000, 8.190927533262131E+07, 4.341141942423709E+08, -2.392627715179557E+07,
2459601.500000000, A.D. 2022-Jan-22 00:00:00.0000, 7.189477025098146E+07, 4.378329334949927E+08, -2.381124520269346E+07,
2459608.500000000, A.D. 2022-Jan-29 00:00:00.0000, 6.184043744291744E+07, 4.413093773338844E+08, -2.368303584182242E+07,
2459615.500000000, A.D. 2022-Feb-05 00:00:00.0000, 5.175228218893780E+07, 4.445447358748623E+08, -2.354188803798169E+07,
2459622.500000000, A.D. 2022-Feb-12 00:00:00.0000, 4.163617758831353E+07, 4.475403458732497E+08, -2.338804300787747E+07,
2459629.500000000, A.D. 2022-Feb-19 00:00:00.0000, 3.149786506999822E+07, 4.502976628285496E+08, -2.322174394527179E+07,
2459636.500000000, A.D. 2022-Feb-26 00:00:00.0000, 2.134295475293604E+07, 4.528182539261947E+08, -2.304323568155843E+07,
2459643.500000000, A.D. 2022-Mar-05 00:00:00.0000, 1.117692578859920E+07, 4.551037912015706E+08, -2.285276434219962E+07,
2459650.500000000, A.D. 2022-Mar-12 00:00:00.0000, 1.005126882363407E+06, 4.571560448621234E+08, -2.265057702427420E+07,
2459657.500000000, A.D. 2022-Mar-19 00:00:00.0000, -9.167222959030291E+06, 4.589768767960633E+08, -2.243692149894208E+07,
2459664.500000000, A.D. 2022-Mar-26 00:00:00.0000, -1.933503345402538E+07, 4.605682342610362E+08, -2.221204594091934E+07,
2459671.500000000, A.D. 2022-Apr-02 00:00:00.0000, -2.949334180028485E+07, 4.619321436951465E+08, -2.197619869526020E+07,
2459678.500000000, A.D. 2022-Apr-09 00:00:00.0000, -3.963731090433358E+07, 4.630707046524689E+08, -2.172962810546041E+07,
2459685.500000000, A.D. 2022-Apr-16 00:00:00.0000, -4.976222674884088E+07, 4.639860845140927E+08, -2.147258238166761E+07,
2459692.500000000, A.D. 2022-Apr-23 00:00:00.0000, -5.986349618376275E+07, 4.646805150559442E+08, -2.120530930361593E+07,
2459699.500000000, A.D. 2022-Apr-30 00:00:00.0000, -6.993664702645160E+07, 4.651562886223513E+08, -2.092805576956305E+07,
2459706.500000000, A.D. 2022-May-07 00:00:00.0000, -7.997732742407721E+07, 4.654157519236145E+08, -2.064106763228720E+07,
2459713.500000000, A.D. 2022-May-14 00:00:00.0000, -8.998130310509716E+07, 4.654613004913243E+08, -2.034458970071927E+07,
2459720.500000000, A.D. 2022-May-21 00:00:00.0000, -9.994445456343687E+07, 4.652953745455785E+08, -2.003886565853176E+07,
2459727.500000000, A.D. 2022-May-28 00:00:00.0000, -1.098627746657488E+08, 4.649204553081643E+08, -1.972413793336809E+07,
2459734.500000000, A.D. 2022-Jun-04 00:00:00.0000, -1.197323664160442E+08, 4.643390614415144E+08, -1.940064756689468E+07,
2459741.500000000, A.D. 2022-Jun-11 00:00:00.0000, -1.295494407436334E+08, 4.635537456085859E+08, -1.906863409803399E+07,
2459748.500000000, A.D. 2022-Jun-18 00:00:00.0000, -1.393103142853734E+08, 4.625670911600019E+08, -1.872833546113980E+07,
2459755.500000000, A.D. 2022-Jun-25 00:00:00.0000, -1.490114071416393E+08, 4.613817089083146E+08, -1.837998790382197E+07,
2459762.500000000, A.D. 2022-Jul-02 00:00:00.0000, -1.586492404801010E+08, 4.600002339166341E+08, -1.802382594137645E+07,
2459769.500000000, A.D. 2022-Jul-09 00:00:00.0000, -1.682204336046210E+08, 4.584253224716014E+08, -1.766008236844018E+07,
2459776.500000000, A.D. 2022-Jul-16 00:00:00.0000, -1.777217005517346E+08, 4.566596503170494E+08, -1.728898823368222E+07,
2459783.500000000, A.D. 2022-Jul-23 00:00:00.0000, -1.871498484192874E+08, 4.547059122205248E+08, -1.691077256903473E+07,
2459790.500000000, A.D. 2022-Jul-30 00:00:00.0000, -1.965017773472383E+08, 4.525668195115736E+08, -1.652566215450129E+07,
2459797.500000000, A.D. 2022-Aug-06 00:00:00.0000, -2.057744785569589E+08, 4.502450962313363E+08, -1.613388159466249E+07,
2459804.500000000, A.D. 2022-Aug-13 00:00:00.0000, -2.149650312779641E+08, 4.477434766424972E+08, -1.573565340574646E+07,
2459811.500000000, A.D. 2022-Aug-20 00:00:00.0000, -2.240706001345503E+08, 4.450647035911198E+08, -1.533119800998652E+07,
2459818.500000000, A.D. 2022-Aug-27 00:00:00.0000, -2.330884329262364E+08, 4.422115269868514E+08, -1.492073370215666E+07,
2459825.500000000, A.D. 2022-Sep-03 00:00:00.0000, -2.420158585563250E+08, 4.391867022833595E+08, -1.450447661928916E+07,
2459832.500000000, A.D. 2022-Sep-10 00:00:00.0000, -2.508502850211772E+08, 4.359929889754929E+08, -1.408264071920207E+07,
2459839.500000000, A.D. 2022-Sep-17 00:00:00.0000, -2.595891974339601E+08, 4.326331491047762E+08, -1.365543777017301E+07,
2459846.500000000, A.D. 2022-Sep-24 00:00:00.0000, -2.682301560257022E+08, 4.291099457169024E+08, -1.322307736117461E+07,
2459853.500000000, A.D. 2022-Oct-01 00:00:00.0000, -2.767707938864200E+08, 4.254261412444625E+08, -1.278576695640895E+07,
2459860.500000000, A.D. 2022-Oct-08 00:00:00.0000, -2.852088140410225E+08, 4.215844963329341E+08, -1.234371198884636E+07,
2459867.500000000, A.D. 2022-Oct-15 00:00:00.0000, -2.935419867934601E+08, 4.175877703053934E+08, -1.189711580941167E+07,
2459874.500000000, A.D. 2022-Oct-22 00:00:00.0000, -3.017681495213786E+08, 4.134387215787953E+08, -1.144617942949814E+07,
2459881.500000000, A.D. 2022-Oct-29 00:00:00.0000, -3.098852064224070E+08, 4.091401054332886E+08, -1.099110149775529E+07,
2459888.500000000, A.D. 2022-Nov-05 00:00:00.0000, -3.178911261130734E+08, 4.046946718694284E+08, -1.053207847949132E+07,
2459895.500000000, A.D. 2022-Nov-12 00:00:00.0000, -3.257839390468526E+08, 4.001051648166118E+08, -1.006930475502840E+07,
2459902.500000000, A.D. 2022-Nov-19 00:00:00.0000, -3.335617354710708E+08, 3.953743217353982E+08, -9.602972649085313E+06,
2459909.500000000, A.D. 2022-Nov-26 00:00:00.0000, -3.412226636602239E+08, 3.905048732124633E+08, -9.133272447624415E+06,
2459916.500000000, A.D. 2022-Dec-03 00:00:00.0000, -3.487649282596278E+08, 3.854995425327287E+08, -8.660392418204188E+06,
2459923.500000000, A.D. 2022-Dec-10 00:00:00.0000, -3.561867886938928E+08, 3.803610452437629E+08, -8.184518836347342E+06,
2459930.500000000, A.D. 2022-Dec-17 00:00:00.0000, -3.634865576154400E+08, 3.750920886841539E+08, -7.705836022082135E+06,
2459937.500000000, A.D. 2022-Dec-24 00:00:00.0000, -3.706625992834948E+08, 3.696953714069045E+08, -7.224526401895657E+06,
2459944.500000000, A.D. 2022-Dec-31 00:00:00.0000, -3.777133275156218E+08, 3.641735826023591E+08, -6.740770619922981E+06,
2459951.500000000, A.D. 2023-Jan-07 00:00:00.0000, -3.846372030888889E+08, 3.585294024801580E+08, -6.254747630792350E+06,
2459958.500000000, A.D. 2023-Jan-14 00:00:00.0000, -3.914327325579214E+08, 3.527655041047820E+08, -5.766634552987948E+06,
2459965.500000000, A.D. 2023-Jan-21 00:00:00.0000, -3.980984691341155E+08, 3.468845535106375E+08, -5.276606482766330E+06,
2459972.500000000, A.D. 2023-Jan-28 00:00:00.0000, -4.046330119558811E+08, 3.408892078984578E+08, -4.784836620716110E+06,
2459979.500000000, A.D. 2023-Feb-04 00:00:00.0000, -4.110350039575352E+08, 3.347821149371525E+08, -4.291496444108948E+06,
2459986.500000000, A.D. 2023-Feb-11 00:00:00.0000, -4.173031301322933E+08, 3.285659129755214E+08, -3.796755776115239E+06,
2459993.500000000, A.D. 2023-Feb-18 00:00:00.0000, -4.234361162519470E+08, 3.222432313391352E+08, -3.300782813221946E+06,
2460000.500000000, A.D. 2023-Feb-25 00:00:00.0000, -4.294327277793971E+08, 3.158166905486076E+08, -2.803744147949800E+06,
2460007.500000000, A.D. 2023-Mar-04 00:00:00.0000, -4.352917688711104E+08, 3.092889024760634E+08, -2.305804794464082E+06,
2460014.500000000, A.D. 2023-Mar-11 00:00:00.0000, -4.410120814404263E+08, 3.026624704386151E+08, -1.807128219417587E+06,
2460021.500000000, A.D. 2023-Mar-18 00:00:00.0000, -4.465925442343129E+08, 2.959399891780462E+08, -1.307876386131242E+06,
2460028.500000000, A.D. 2023-Mar-25 00:00:00.0000, -4.520320717198608E+08, 2.891240446784406E+08, -8.082098343539536E+05,
2460035.500000000, A.D. 2023-Apr-01 00:00:00.0000, -4.573296123554723E+08, 2.822172142142241E+08, -3.082878021198958E+05,
2460042.500000000, A.D. 2023-Apr-08 00:00:00.0000, -4.624841468617312E+08, 2.752220678526894E+08, 1.917317670799345E+05,
2460049.500000000, A.D. 2023-Apr-15 00:00:00.0000, -4.674946888289666E+08, 2.681411703045120E+08, 6.916924559105188E+05,
2460056.500000000, A.D. 2023-Apr-22 00:00:00.0000, -4.723602858512775E+08, 2.609770800705192E+08, 1.191439428372175E+06,
2460063.500000000, A.D. 2023-Apr-29 00:00:00.0000, -4.770800184491866E+08, 2.537323481363756E+08, 1.690819242025331E+06,
2460070.500000000, A.D. 2023-May-06 00:00:00.0000, -4.816529985394636E+08, 2.464095179940758E+08, 2.189679724362001E+06,
2460077.500000000, A.D. 2023-May-13 00:00:00.0000, -4.860783684284351E+08, 2.390111260951853E+08, 2.687869929790393E+06,
2460084.500000000, A.D. 2023-May-20 00:00:00.0000, -4.903553000941666E+08, 2.315397022434914E+08, 3.185240115470588E+06,
2460091.500000000, A.D. 2023-May-27 00:00:00.0000, -4.944829945638435E+08, 2.239977698963875E+08, 3.681641715645328E+06,
2460098.500000000, A.D. 2023-Jun-03 00:00:00.0000, -4.984606813289935E+08, 2.163878464001480E+08, 4.176927311035678E+06,
2460105.500000000, A.D. 2023-Jun-10 00:00:00.0000, -5.022876177749664E+08, 2.087124431450026E+08, 4.670950589694947E+06,
2460112.500000000, A.D. 2023-Jun-17 00:00:00.0000, -5.059630885354747E+08, 2.009740655797849E+08, 5.163566285963640E+06,
2460119.500000000, A.D. 2023-Jun-24 00:00:00.0000, -5.094864044516100E+08, 1.931752131415430E+08, 5.654630072487891E+06,
2460126.500000000, A.D. 2023-Jul-01 00:00:00.0000, -5.128569008813618E+08, 1.853183799276648E+08, 6.143998449576534E+06,
2460133.500000000, A.D. 2023-Jul-08 00:00:00.0000, -5.160739370331376E+08, 1.774060569317657E+08, 6.631528852456175E+06,
2460140.500000000, A.D. 2023-Jul-15 00:00:00.0000, -5.191368976002896E+08, 1.694407330131910E+08, 7.117079862123296E+06,
2460147.500000000, A.D. 2023-Jul-22 00:00:00.0000, -5.220451931746759E+08, 1.614248935659150E+08, 7.600511112227723E+06,
$$EOE